TDRS 3                  
1 19548U 88091B   26190.32197634 -.00000293  00000+0  00000+0 0  9999
2 19548  12.5854 340.8502 0036931 355.6704  17.6136  1.00264882125618
FLTSATCOM 8 (USA 46)    
1 20253U 89077A   26190.30865300 -.00000362  00000+0  00000+0 0  9996
2 20253  12.4152 351.0292 0003595  67.2077 105.7555  1.00266048260780
SKYNET 4C               
1 20776U 90079A   26190.27586179 -.00000007  00000+0  00000+0 0  9996
2 20776  13.3312 349.6705 0003034 136.3764 127.6466  0.98576467   252
TDRS 5                  
1 21639U 91054B   26190.26235101  .00000088  00000+0  00000+0 0  9992
2 21639  14.0683 353.6102 0007267 256.8639 323.4773  1.00271283127931
TDRS 6                  
1 22314U 93003B   26190.02058986 -.00000292  00000+0  00000+0 0  9995
2 22314  14.1830 356.8951 0009122 180.2289  71.0279  1.00263374122627
UFO 2 (USA 95)          
1 22787U 93056A   26189.14871426  .00000131  00000+0  00000+0 0  9991
2 22787  11.9042   3.4386 0003061   8.4750 356.4319  1.00267025118760
USA 99 (MILSTAR-1 1)    
1 22988U 94009A   26190.27814624  .00000018  00000+0  00000+0 0  9990
2 22988  17.6581  27.4739 0001640 191.4383  50.1367  0.98720109 33162
UFO 4 (USA 108)         
1 23467U 95003A   26190.28815514 -.00000016  00000+0  00000+0 0  9997
2 23467   9.6725  13.0332 0002874  90.3150  99.9092  1.00270732115179
TDRS 7                  
1 23613U 95035B   26189.91850285 -.00000235  00000+0  00000+0 0  9990
2 23613  13.3680 348.0392 0011665  84.6391 274.0497  1.00275556113466
USA 115 (MILSTAR-1 2)   
1 23712U 95060A   26189.98068089 -.00000198  00000+0  00000+0 0  9996
2 23712  14.0803   3.5786 0006199 121.7206  64.6329  1.00271126 33103
INMARSAT 3-F1           
1 23839U 96020A   26190.24142264  .00000028  00000+0  00000+0 0  9993
2 23839  10.6456  46.4292 0004255  80.9987 128.1650  0.99979084110474
INMARSAT 3-F2           
1 24307U 96053A   26189.68256502 -.00000350  00000+0  00000+0 0  9996
2 24307   9.9042  53.7156 0006439  48.5386 198.3822  0.99994972109130
INMARSAT 3-F3           
1 24674U 96070A   26190.28864119  .00000078  00000+0  00000+0 0  9995
2 24674  10.3648  49.4392 0003464  67.6778 293.9008  0.99992855108136
USA 134                 
1 25019U 97065A   26190.28129332 -.00000059  00000+0  00000+0 0  9995
2 25019  12.8091  21.5505 0002340 335.8825 278.6140  1.00272340 33172
INMARSAT 3-F5           
1 25153U 98006B   26190.06590788 -.00000285  00000+0  00000+0 0  9994
2 25153   9.7392  53.0364 0004402  56.6184 147.0625  1.00275670104119
ABS-6                   
1 25924U 99053A   26190.26919753 -.00000106  00000+0  00000+0 0  9994
2 25924   0.0581 268.1940 0003173 176.7821  98.1460  1.00269337 98066
UFO 10 (USA 146)        
1 25967U 99063A   26190.31086377 -.00000183  00000+0  00000+0 0  9990
2 25967   9.8558  27.0927 0001350  99.6644 249.4342  1.00273579 97569
ASIASTAR                
1 26107U 00016A   26190.06503214 -.00000328  00000+0  00000+0 0  9994
2 26107   9.1775  57.9152 0003741  61.0172 296.4808  1.00274293 96132
USA 149 (DSP 20)        
1 26356U 00024A   26190.28209541  .00000100  00000+0  00000+0 0  9996
2 26356  13.1863  11.6887 0001512 307.0482 265.2361  1.00279897 33138
TDRS 8                  
1 26388U 00034A   26190.01543481 -.00000192  00000+0  00000+0 0  9999
2 26388  12.7172  31.1344 0004330  31.7886 314.4253  1.00273539 95396
NSS-11                  
1 26554U 00059A   26190.32734226  .00000036  00000+0  00000+0 0  9990
2 26554   2.1806  81.1282 0002804  33.8694 106.1154  1.00272383 41515
USA 153                 
1 26575U 00065A   26189.88263226 -.00000320  00000+0  00000+0 0  9993
2 26575  11.6604  35.2363 0002127  57.3650 286.3943  1.00274420 33141
AMC-6                   
1 26580U 00067A   26190.24697481  .00000102  00000+0  00000+0 0  9994
2 26580   0.2053  83.5893 0003845  36.9273 120.5400  1.00270596 94116
USA 157 (MILSTAR-2 2)   
1 26715U 01009A   26190.25253273  .00000114  00000+0  00000+0 0  9992
2 26715  11.5659  19.6197 0040523 178.9727  29.4100  1.00271790 33164
INTELSAT 902 (IS-902)   
1 26900U 01039A   26190.32197634 -.00000275  00000+0  00000+0 0  9996
2 26900   6.1715  71.5125 0004423  33.4879 248.0640  1.00271871 90917
USA 164 (MILSTAR-2 3)   
1 27168U 02001A   26190.20253065  .00000102  00000+0  00000+0 0  9999
2 27168  11.2046  21.7655 0098555   8.9456 348.3042  1.00275014 33178
INTELSAT 904 (IS-904)   
1 27380U 02007A   26190.31581193 -.00000218  00000+0  00000+0 0  9998
2 27380   6.9721  68.9153 0005515  22.0874 278.4753  1.00272289 51988
DIRECTV 5 (TEMPO 1)     
1 27426U 02023A   26190.34201709 -.00000048  00000+0  00000+0 0  9993
2 27426   4.9311  75.0331 0003060  37.3873 187.8801  1.00271042 88343
INTELSAT 905 (IS-905)   
1 27438U 02027A   26190.28439150  .00000101  00000+0  00000+0 0  9995
2 27438   6.8057  69.5306 0003630  43.8235 139.0538  1.00272507 51580
GALAXY 3C (G-3C)        
1 27445U 02030A   26190.05109806 -.00000142  00000+0  00000+0 0  9990
2 27445   3.7866  77.6932 0001604  37.9284  94.9436  1.00270965 46715
INTELSAT 906 (IS-906)   
1 27513U 02041A   26190.22510023  .00000021  00000+0  00000+0 0  9999
2 27513   5.8569  72.6501 0003980  17.5172 342.1626  1.00271925 87249
